{"type":"FeatureCollection", "features": [
{"type":"Feature","geometry":{"type":"Polygon","coordinates":[[[41.2886,35.4939],[41.3943,35.6303],[41.3811,35.8353],[41.3332,35.9208],[41.258,36.0546],[41.2669,36.092],[41.2918,36.2636],[41.2945,36.3562],[41.4112,36.5229],[41.5507,36.544],[41.7068,36.5675],[41.8283,36.5932],[41.9385,36.6703],[41.9908,36.7231],[42.0344,36.7638],[42.0924,36.8143],[42.1373,36.8607],[42.1769,36.8905],[42.2493,36.9577],[42.3847,37.0672],[42.385,37.0741],[42.3811,37.082],[42.366,37.0891],[42.3622,37.095],[42.3538,37.0976],[42.3583,37.1221],[42.3563,37.1397],[42.3494,37.1484],[42.3371,37.1749],[42.3353,37.1857],[42.3402,37.1996],[42.3552,37.2106],[42.3587,37.2181],[42.3574,37.2275],[42.3498,37.2365],[42.3351,37.2403],[42.3275,37.2451],[42.3211,37.2568],[42.3073,37.2613],[42.295,37.2809],[42.2756,37.2711],[42.267,37.2718],[42.2559,37.2788],[42.235,37.2805],[42.2271,37.2766],[42.2208,37.2775],[42.2188,37.284],[42.233,37.3077],[42.2322,37.3174],[42.2249,37.3191],[42.2165,37.3152],[42.2078,37.3002],[42.194,37.2822],[42.1839,37.2751],[42.1538,37.2598],[42.1392,37.2495],[42.1224,37.2354],[42.1128,37.2191],[42.1061,37.2129],[42.0793,37.2016],[42.0573,37.1889],[42.0163,37.1774],[41.9751,37.1596],[41.7586,37.1175],[41.7284,37.1135],[41.6869,37.1145],[41.6574,37.1124],[41.6265,37.1051],[41.5897,37.0924],[41.5581,37.0852],[41.5009,37.0795],[41.286,37.0801],[41.2711,37.0792],[41.2575,37.075],[41.2488,37.0691],[41.2368,37.0649],[41.2184,37.0636],[41.2119,37.067],[41.2044,37.0793],[41.1697,37.0922],[41.1324,37.0931],[41.1145,37.0951],[41.0595,37.1054],[41.0324,37.1074],[41.0005,37.112],[40.9724,37.1175],[40.9499,37.1244],[40.9211,37.1271],[40.8859,37.1243],[40.8705,37.1181],[40.8581,37.1084],[40.8505,37.1066],[40.8341,37.1094],[40.8225,37.1197],[40.7817,37.1206],[40.7527,37.1059],[40.7406,37.1024],[40.7208,37.1011],[40.7078,37.0977],[40.6885,37.0876],[40.6748,37.0784],[40.6352,37.0629],[40.6023,37.0541],[40.5824,37.0412],[40.5463,37.0267],[40.5326,37.0238],[40.4618,37.0149],[40.4381,37.0088],[40.4191,36.9992],[40.3975,36.9813],[40.3696,36.9674],[40.3259,36.952],[40.2784,36.9261],[40.2602,36.92],[40.2383,36.9032],[40.208,36.8878],[40.1809,36.8787],[40.1585,36.8746],[40.1327,36.8718],[40.087,36.8607],[40.0728,36.8491],[40.0519,36.8361],[40.0158,36.824],[39.9632,36.7985],[39.9291,36.787],[39.8905,36.7771],[39.856,36.7605],[39.8418,36.7553],[39.8073,36.7495],[39.7227,36.7438],[39.712,36.7416],[39.6648,36.7258],[39.6263,36.7233],[39.5966,36.7196],[39.5457,36.7078],[39.504,36.7021],[39.513,36.6842],[39.5433,36.644],[39.5644,36.6179],[39.5969,36.5898],[39.625,36.5617],[39.67,36.5257],[39.7301,36.4768],[39.7585,36.452],[39.7996,36.3693],[39.8092,36.3731],[39.8162,36.3714],[39.8285,36.3609],[39.8441,36.3602],[39.8574,36.3572],[39.8944,36.3382],[39.8991,36.3358],[39.9442,36.2453],[39.9556,36.2338],[39.9899,36.2165],[40.0022,36.2094],[40.0114,36.1923],[40.0064,36.1818],[40.0215,36.1732],[40.0551,36.1512],[40.0667,36.1452],[40.0765,36.1363],[40.0881,36.1194],[40.099,36.0863],[40.1075,36.0812],[40.1536,36.06],[40.1864,36.0369],[40.2001,36.0289],[40.2333,36.0257],[40.2389,36.005],[40.2595,35.9844],[40.2857,35.9703],[40.3138,35.9586],[40.3224,35.9528],[40.3459,35.9469],[40.3644,35.9384],[40.3761,35.924],[40.383,35.9054],[40.3894,35.8964],[40.3942,35.8841],[40.4159,35.8629],[40.4471,35.8373],[40.5011,35.7886],[40.5382,35.7715],[40.5531,35.7577],[40.5784,35.7384],[40.618,35.7114],[40.6336,35.6946],[40.6612,35.674],[40.6932,35.6526],[40.7229,35.6402],[40.7352,35.628],[40.7521,35.6172],[40.8611,35.5875],[40.9283,35.5638],[40.9709,35.5494],[41.0258,35.5513],[41.1098,35.5471],[41.2092,35.5384],[41.2886,35.4939]]]},"properties":{"code":"SY08","nameAr":"الحسكة","nameEn":"Al-Hasakeh","centerLat":36.42751884,"centerLng":40.55755572}},
{"type":"Feature","geometry":{"type":"Polygon","coordinates":[[[38.6442,36.7698],[38.6229,36.7903],[38.6006,36.806],[38.591,36.8174],[38.5797,36.8238],[38.5634,36.8388],[38.5216,36.8541],[38.493,36.8627],[38.4494,36.8818],[38.4078,36.8954],[38.3985,36.8972],[38.3815,36.8972],[38.3425,36.9004],[38.3163,36.9054],[38.2956,36.9069],[38.2652,36.9135],[38.2454,36.9119],[38.2305,36.9059],[38.2005,36.908],[38.1878,36.9046],[38.1728,36.8946],[38.1264,36.8811],[38.0705,36.8586],[38.0583,36.8487],[38.0517,36.8364],[38.0409,36.8286],[37.998,36.8238],[37.9765,36.8182],[37.9581,36.8104],[37.9287,36.7944],[37.908,36.7857],[37.8623,36.7741],[37.8144,36.7592],[37.7912,36.7486],[37.767,36.7466],[37.7338,36.7495],[37.7103,36.7446],[37.6945,36.7382],[37.674,36.7368],[37.6551,36.7314],[37.6355,36.7207],[37.6026,36.707],[37.5782,36.6985],[37.5343,36.6764],[37.521,36.6672],[37.502,36.6493],[37.485,36.6411],[37.4725,36.638],[37.4611,36.6382],[37.4272,36.6458],[37.3727,36.6536],[37.3347,36.6551],[37.3031,36.6616],[37.2665,36.6649],[37.2256,36.6633],[37.1962,36.6542],[37.1745,36.6546],[37.1511,36.6635],[37.1268,36.6617],[37.1219,36.6594],[37.1126,36.6463],[37.1036,36.627],[37.091,36.6237],[37.0799,36.6294],[37.0646,36.6423],[37.0485,36.6532],[37.0314,36.6577],[37.0279,36.6655],[37.0332,36.6784],[37.0567,36.7127],[37.0581,36.7207],[37.0518,36.7268],[37.0199,36.737],[37.0095,36.7431],[36.9989,36.7553],[36.9888,36.762],[36.9443,36.7812],[36.9027,36.7777],[36.8796,36.7814],[36.8042,36.7986],[36.739,36.8242],[36.6853,36.8347],[36.6755,36.8456],[36.6684,36.8363],[36.6775,36.8213],[36.6782,36.8112],[36.6703,36.7998],[36.6328,36.7663],[36.6271,36.7577],[36.624,36.7471],[36.6351,36.728],[36.6387,36.7116],[36.6369,36.7051],[36.6278,36.6953],[36.6189,36.68],[36.6064,36.6715],[36.5919,36.6501],[36.5879,36.6305],[36.6006,36.6005],[36.6042,36.5791],[36.5999,36.562],[36.5961,36.5557],[36.5913,36.5375],[36.5833,36.5227],[36.5734,36.5121],[36.553,36.5011],[36.557,36.4918],[36.555,36.4858],[36.5678,36.4677],[36.5686,36.4451],[36.5756,36.4386],[36.5769,36.4248],[36.585,36.4117],[36.5867,36.4019],[36.5932,36.3942],[36.6067,36.3913],[36.6157,36.3927],[36.6235,36.388],[36.6203,36.3749],[36.6279,36.3597],[36.6277,36.3542],[36.612,36.3407],[36.6077,36.3329],[36.6116,36.3279],[36.6215,36.3288],[36.6394,36.3356],[36.6502,36.3361],[36.6662,36.3302],[36.6691,36.3205],[36.6795,36.3223],[36.6932,36.3215],[36.7154,36.3226],[36.7294,36.3277],[36.7228,36.3345],[36.7257,36.338],[36.7402,36.3387],[36.7486,36.3355],[36.7539,36.3287],[36.7613,36.3104],[36.7655,36.3044],[36.7731,36.3018],[36.7834,36.3031],[36.7885,36.2998],[36.7919,36.2834],[36.7954,36.2809],[36.8152,36.2844],[36.8227,36.282],[36.8162,36.2676],[36.8239,36.2584],[36.8224,36.2502],[36.8356,36.2491],[36.8403,36.2338],[36.8331,36.231],[36.8282,36.2172],[36.8123,36.2148],[36.7982,36.2165],[36.7806,36.2075],[36.774,36.1954],[36.7665,36.1888],[36.7734,36.1858],[36.7602,36.1651],[36.7432,36.1629],[36.7329,36.1569],[36.715,36.1546],[36.7103,36.1465],[36.7181,36.1425],[36.7254,36.1264],[36.7324,36.1205],[36.7496,36.1148],[36.7558,36.1093],[36.7546,36.1048],[36.7444,36.0997],[36.7414,36.0848],[36.7467,36.0803],[36.7685,36.0675],[36.7808,36.0663],[36.789,36.0698],[36.807,36.0716],[36.8227,36.0659],[36.8335,36.0652],[36.8361,36.0539],[36.8455,36.0404],[36.8567,36.0444],[36.8794,36.044],[36.8827,36.0388],[36.8827,36.0244],[36.8754,36.0152],[36.8719,36.0012],[36.8733,35.9884],[36.8676,35.9815],[36.8681,35.9709],[36.8749,35.9604],[36.8763,35.9379],[36.8794,35.9332],[36.8885,35.9361],[36.8931,35.9286],[36.9005,35.9253],[36.9016,35.9136],[36.9204,35.9127],[36.9355,35.9158],[36.941,35.9111],[36.9421,35.9042],[36.9351,35.8975],[36.9378,35.8892],[36.9557,35.8834],[36.9596,35.8701],[36.954,35.8634],[36.9594,35.8503],[36.9766,35.8452],[36.9809,35.8381],[36.9905,35.8362],[36.9852,35.8254],[36.9848,35.8123],[36.9905,35.8057],[37.0061,35.8184],[37.0189,35.8203],[37.025,35.817],[37.0313,35.8245],[37.0325,35.8429],[37.0526,35.8372],[37.0607,35.837],[37.0767,35.8275],[37.0881,35.8227],[37.0916,35.8187],[37.1032,35.8204],[37.1034,35.8291],[37.1092,35.8312],[37.1211,35.8264],[37.1145,35.8095],[37.1153,35.8017],[37.1367,35.7963],[37.1368,35.7814],[37.1226,35.7807],[37.1176,35.7778],[37.108,35.765],[37.1197,35.758],[37.1154,35.7494],[37.1035,35.7471],[37.1048,35.7416],[37.117,35.7399],[37.1202,35.727],[37.1198,35.7078],[37.1099,35.7016],[37.1005,35.6872],[37.0996,35.6795],[37.1034,35.6736],[37.1112,35.6707],[37.123,35.6732],[37.1353,35.6677],[37.1282,35.6444],[37.1342,35.6396],[37.1455,35.6359],[37.1398,35.6288],[37.1314,35.6236],[37.118,35.6103],[37.1209,35.6048],[37.1109,35.5931],[37.1234,35.5887],[37.1429,35.5876],[37.1565,35.5829],[37.1667,35.553],[37.1749,35.5502],[37.188,35.5576],[37.2017,35.5544],[37.1991,35.5462],[37.2154,35.5442],[37.2195,35.5457],[37.2216,35.5587],[37.2341,35.5606],[37.2406,35.5547],[37.2504,35.5334],[37.2606,35.5306],[37.2691,35.5331],[37.2832,35.5326],[37.2875,35.5399],[37.2985,35.5466],[37.3037,35.5394],[37.3246,35.5416],[37.3228,35.5274],[37.3139,35.524],[37.3294,35.512],[37.3353,35.5159],[37.3461,35.5069],[37.368,35.5153],[37.3855,35.5083],[37.3848,35.5317],[37.3831,35.5362],[37.417,35.5556],[37.4427,35.5476],[37.485,35.5187],[37.4956,35.4988],[37.4998,35.4751],[37.4988,35.4729],[37.5992,35.461],[37.7329,35.463],[37.732,35.4805],[37.7859,35.4805],[37.8078,35.4428],[37.8755,35.4401],[37.9653,35.4322],[38.0484,35.4171],[38.1759,35.3851],[38.226,35.3809],[38.3168,35.3954],[38.2448,35.4442],[38.2795,35.5058],[38.2904,35.5155],[38.2997,35.5283],[38.3028,35.568],[38.2671,35.5813],[38.269,35.5939],[38.2619,35.5997],[38.2536,35.5916],[38.207,35.6065],[38.2103,35.6168],[38.1925,35.6526],[38.1982,35.6713],[38.1986,35.6871],[38.1926,35.7085],[38.1869,35.7184],[38.1637,35.7248],[38.1574,35.7322],[38.1697,35.7865],[38.1451,35.7927],[38.1723,35.8365],[38.1535,35.8376],[38.1509,35.8354],[38.1279,35.837],[38.1258,35.8306],[38.1153,35.8335],[38.1304,35.8603],[38.1359,35.8772],[38.1573,35.9025],[38.1833,35.9278],[38.2007,35.9422],[38.1911,35.9499],[38.1759,35.9533],[38.1641,35.9517],[38.1608,35.9571],[38.1635,35.9706],[38.1606,35.9791],[38.1526,35.98],[38.1542,35.9881],[38.1463,35.997],[38.1313,36.0002],[38.125,36.0092],[38.1097,36.0125],[38.1003,36.0205],[38.096,36.0402],[38.1054,36.0516],[38.0851,36.0724],[38.0628,36.0821],[38.0586,36.087],[38.0597,36.0969],[38.069,36.0985],[38.0797,36.0884],[38.0925,36.0888],[38.1005,36.102],[38.082,36.1181],[38.0818,36.123],[38.0739,36.1368],[38.0803,36.145],[38.0791,36.1507],[38.0867,36.1722],[38.1048,36.175],[38.1092,36.1784],[38.1152,36.2088],[38.1342,36.2232],[38.1374,36.2296],[38.1334,36.251],[38.1407,36.2565],[38.1629,36.2572],[38.1816,36.2678],[38.2004,36.2749],[38.2037,36.2805],[38.228,36.2825],[38.2475,36.2773],[38.2653,36.2742],[38.2806,36.2735],[38.297,36.2746],[38.3117,36.2783],[38.3134,36.282],[38.3288,36.2834],[38.3319,36.2761],[38.3439,36.2711],[38.3518,36.2632],[38.3484,36.2514],[38.3439,36.2456],[38.3367,36.2444],[38.3378,36.2363],[38.3323,36.2236],[38.3334,36.2136],[38.3557,36.2019],[38.3845,36.1937],[38.3796,36.1871],[38.385,36.1805],[38.3846,36.1624],[38.3881,36.1592],[38.4058,36.156],[38.4134,36.1526],[38.4381,36.1554],[38.4423,36.1837],[38.4416,36.1922],[38.4367,36.1999],[38.4292,36.205],[38.4176,36.2226],[38.4238,36.2271],[38.4367,36.231],[38.4694,36.2372],[38.4809,36.2402],[38.5011,36.2382],[38.5099,36.2319],[38.5126,36.2041],[38.5269,36.2061],[38.5465,36.2201],[38.5518,36.2282],[38.5469,36.2376],[38.537,36.247],[38.5286,36.247],[38.5342,36.2604],[38.5389,36.2604],[38.5395,36.2806],[38.5473,36.2901],[38.5711,36.2874],[38.5721,36.2599],[38.5741,36.2576],[38.6088,36.275],[38.6316,36.2821],[38.6275,36.3035],[38.6472,36.313],[38.6384,36.3282],[38.646,36.3393],[38.6468,36.3479],[38.643,36.3683],[38.6358,36.3721],[38.6401,36.3826],[38.6403,36.3899],[38.6354,36.3994],[38.642,36.4047],[38.6422,36.412],[38.6522,36.4119],[38.6565,36.4187],[38.6641,36.4206],[38.6638,36.4355],[38.6534,36.4462],[38.657,36.455],[38.6717,36.4598],[38.6774,36.4769],[38.6565,36.4823],[38.6531,36.4984],[38.6667,36.5289],[38.6838,36.5434],[38.6821,36.5522],[38.6726,36.5597],[38.6755,36.5754],[38.6957,36.6137],[38.6943,36.6189],[38.7033,36.6381],[38.7147,36.6374],[38.7202,36.6415],[38.705,36.6517],[38.6762,36.6389],[38.6684,36.6381],[38.6631,36.6536],[38.6287,36.6438],[38.6344,36.637],[38.6342,36.6108],[38.6237,36.6056],[38.5957,36.6135],[38.589,36.6332],[38.5926,36.6457],[38.5802,36.6645],[38.5845,36.6778],[38.6161,36.6747],[38.6216,36.6669],[38.6605,36.6757],[38.6726,36.6842],[38.6646,36.7156],[38.6498,36.7175],[38.6361,36.7331],[38.6441,36.7465],[38.6399,36.7498],[38.6342,36.7619],[38.6349,36.7685],[38.6442,36.7698]]]},"properties":{"code":"SY02","nameAr":"حلب","nameEn":"Aleppo","centerLat":36.14689671,"centerLng":37.39516317}},
{"type":"Feature","geometry":{"type":"Polygon","coordinates":[[[39.504,36.7021],[39.4671,36.6979],[39.4526,36.6997],[39.4305,36.6945],[39.398,36.6943],[39.3448,36.6896],[39.2759,36.6737],[39.2274,36.665],[39.2155,36.666],[39.1503,36.6834],[39.0855,36.6971],[39.0202,36.7033],[38.999,36.7029],[38.9697,36.6989],[38.9183,36.6976],[38.8471,36.6967],[38.8146,36.6982],[38.8008,36.6974],[38.7774,36.6993],[38.7315,36.7075],[38.7236,36.7104],[38.697,36.7284],[38.6733,36.7478],[38.6442,36.7698],[38.6349,36.7685],[38.6342,36.7619],[38.6399,36.7498],[38.6441,36.7465],[38.6361,36.7331],[38.6498,36.7175],[38.6646,36.7156],[38.6726,36.6842],[38.6605,36.6757],[38.6216,36.6669],[38.6161,36.6747],[38.5845,36.6778],[38.5802,36.6645],[38.5926,36.6457],[38.589,36.6332],[38.5957,36.6135],[38.6237,36.6056],[38.6342,36.6108],[38.6344,36.637],[38.6287,36.6438],[38.6631,36.6536],[38.6684,36.6381],[38.6762,36.6389],[38.705,36.6517],[38.7202,36.6415],[38.7147,36.6374],[38.7033,36.6381],[38.6943,36.6189],[38.6957,36.6137],[38.6755,36.5754],[38.6726,36.5597],[38.6821,36.5522],[38.6838,36.5434],[38.6667,36.5289],[38.6531,36.4984],[38.6565,36.4823],[38.6774,36.4769],[38.6717,36.4598],[38.657,36.455],[38.6534,36.4462],[38.6638,36.4355],[38.6641,36.4206],[38.6565,36.4187],[38.6522,36.4119],[38.6422,36.412],[38.642,36.4047],[38.6354,36.3994],[38.6403,36.3899],[38.6401,36.3826],[38.6358,36.3721],[38.643,36.3683],[38.6468,36.3479],[38.646,36.3393],[38.6384,36.3282],[38.6472,36.313],[38.6275,36.3035],[38.6316,36.2821],[38.6088,36.275],[38.5741,36.2576],[38.5721,36.2599],[38.5711,36.2874],[38.5473,36.2901],[38.5395,36.2806],[38.5389,36.2604],[38.5342,36.2604],[38.5286,36.247],[38.537,36.247],[38.5469,36.2376],[38.5518,36.2282],[38.5465,36.2201],[38.5269,36.2061],[38.5126,36.2041],[38.5099,36.2319],[38.5011,36.2382],[38.4809,36.2402],[38.4694,36.2372],[38.4367,36.231],[38.4238,36.2271],[38.4176,36.2226],[38.4292,36.205],[38.4367,36.1999],[38.4416,36.1922],[38.4423,36.1837],[38.4381,36.1554],[38.4134,36.1526],[38.4058,36.156],[38.3881,36.1592],[38.3846,36.1624],[38.385,36.1805],[38.3796,36.1871],[38.3845,36.1937],[38.3557,36.2019],[38.3334,36.2136],[38.3323,36.2236],[38.3378,36.2363],[38.3367,36.2444],[38.3439,36.2456],[38.3484,36.2514],[38.3518,36.2632],[38.3439,36.2711],[38.3319,36.2761],[38.3288,36.2834],[38.3134,36.282],[38.3117,36.2783],[38.297,36.2746],[38.2806,36.2735],[38.2653,36.2742],[38.2475,36.2773],[38.228,36.2825],[38.2037,36.2805],[38.2004,36.2749],[38.1816,36.2678],[38.1629,36.2572],[38.1407,36.2565],[38.1334,36.251],[38.1374,36.2296],[38.1342,36.2232],[38.1152,36.2088],[38.1092,36.1784],[38.1048,36.175],[38.0867,36.1722],[38.0791,36.1507],[38.0803,36.145],[38.0739,36.1368],[38.0818,36.123],[38.082,36.1181],[38.1005,36.102],[38.0925,36.0888],[38.0797,36.0884],[38.069,36.0985],[38.0597,36.0969],[38.0586,36.087],[38.0628,36.0821],[38.0851,36.0724],[38.1054,36.0516],[38.096,36.0402],[38.1003,36.0205],[38.1097,36.0125],[38.125,36.0092],[38.1313,36.0002],[38.1463,35.997],[38.1542,35.9881],[38.1526,35.98],[38.1606,35.9791],[38.1635,35.9706],[38.1608,35.9571],[38.1641,35.9517],[38.1759,35.9533],[38.1911,35.9499],[38.2007,35.9422],[38.1833,35.9278],[38.1573,35.9025],[38.1359,35.8772],[38.1304,35.8603],[38.1153,35.8335],[38.1258,35.8306],[38.1279,35.837],[38.1509,35.8354],[38.1535,35.8376],[38.1723,35.8365],[38.1451,35.7927],[38.1697,35.7865],[38.1574,35.7322],[38.1637,35.7248],[38.1869,35.7184],[38.1926,35.7085],[38.1986,35.6871],[38.1982,35.6713],[38.1925,35.6526],[38.2103,35.6168],[38.207,35.6065],[38.2536,35.5916],[38.2619,35.5997],[38.269,35.5939],[38.2671,35.5813],[38.3028,35.568],[38.2997,35.5283],[38.2904,35.5155],[38.2795,35.5058],[38.2448,35.4442],[38.3168,35.3954],[38.4425,35.3966],[38.5753,35.3989],[38.8249,35.3756],[38.8713,35.3711],[39.1343,35.324],[39.1428,35.3272],[39.1569,35.3275],[39.1743,35.3256],[39.1968,35.3165],[39.2018,35.3056],[39.2008,35.2933],[39.2092,35.2867],[39.2256,35.2844],[39.2449,35.278],[39.2682,35.306],[39.4714,35.5531],[39.4851,35.5677],[39.5809,35.684],[39.6144,35.7221],[39.6402,35.7526],[39.6429,35.762],[39.6577,35.7756],[39.6846,35.7766],[39.6945,35.7686],[39.6976,35.7763],[39.7038,35.8259],[39.7014,35.9297],[39.7076,35.955],[39.6984,35.9692],[39.7033,35.989],[39.7137,35.9941],[39.7237,36.0025],[39.7272,36.0094],[39.7425,36.0159],[39.7422,36.0266],[39.7465,36.0325],[39.7639,36.0357],[39.7677,36.0427],[39.78,36.0497],[39.7843,36.0631],[39.7948,36.0704],[39.8007,36.0819],[39.7999,36.0862],[39.8098,36.0967],[39.8171,36.109],[39.8275,36.1111],[39.8431,36.1313],[39.8366,36.1383],[39.8348,36.1462],[39.8294,36.1506],[39.8425,36.1729],[39.8428,36.1796],[39.8544,36.1882],[39.8637,36.2094],[39.8801,36.2153],[39.8841,36.2247],[39.8946,36.24],[39.8935,36.2449],[39.8989,36.2695],[39.8957,36.3065],[39.8944,36.3382],[39.8574,36.3572],[39.8441,36.3602],[39.8285,36.3609],[39.8162,36.3714],[39.8092,36.3731],[39.7996,36.3693],[39.7585,36.452],[39.7301,36.4768],[39.67,36.5257],[39.625,36.5617],[39.5969,36.5898],[39.5644,36.6179],[39.5433,36.644],[39.513,36.6842],[39.504,36.7021]]]},"properties":{"code":"SY11","nameAr":"الرقة","nameEn":"Ar-Raqqa","centerLat":36.02303601,"centerLng":38.92058605}},
{"type":"Feature","geometry":{"type":"Polygon","coordinates":[[[37.4643,32.664],[37.4565,32.6761],[37.4204,32.726],[37.3905,32.7657],[37.3595,32.8079],[37.3511,32.8184],[37.2872,32.9066],[37.279,32.9268],[37.2753,32.9646],[37.2767,32.9953],[37.2568,33.003],[37.2433,33.0043],[37.2016,33.006],[37.1942,33.0082],[37.1476,33.0147],[37.1284,33.0185],[37.1164,33.0226],[37.0949,33.033],[37.0495,33.0467],[37.0368,33.0489],[36.9781,33.0501],[36.9135,33.0518],[36.8849,33.0565],[36.8709,33.0622],[36.8571,33.0724],[36.8402,33.0869],[36.7597,33.1531],[36.7123,33.1929],[36.7079,33.1941],[36.6661,33.1903],[36.5723,33.1827],[36.5238,33.1789],[36.5036,33.1673],[36.4978,33.1564],[36.4922,33.1275],[36.4924,33.1053],[36.5008,33.0878],[36.5179,33.0577],[36.5349,33.0538],[36.5394,33.042],[36.5528,33.0265],[36.5545,33.0167],[36.5341,33.0054],[36.5059,33.0009],[36.4851,32.9998],[36.4659,32.9973],[36.4284,32.9885],[36.42,32.9845],[36.3941,32.9627],[36.3763,32.9421],[36.382,32.916],[36.3746,32.8962],[36.3713,32.8669],[36.3758,32.8269],[36.3823,32.7871],[36.3887,32.777],[36.3927,32.7477],[36.3753,32.7442],[36.3713,32.7284],[36.358,32.71],[36.3665,32.7042],[36.3725,32.7037],[36.3803,32.6965],[36.391,32.6966],[36.4026,32.6852],[36.412,32.6833],[36.442,32.6733],[36.4559,32.6655],[36.464,32.6586],[36.464,32.6426],[36.459,32.6341],[36.4528,32.63],[36.4319,32.6281],[36.4226,32.6255],[36.4,32.6161],[36.4005,32.6069],[36.405,32.5841],[36.4131,32.5679],[36.4385,32.5661],[36.4913,32.569],[36.5049,32.5661],[36.5124,32.5557],[36.5074,32.5372],[36.5141,32.5097],[36.5343,32.489],[36.5429,32.4752],[36.5436,32.4635],[36.5217,32.4374],[36.5144,32.4054],[36.5057,32.3738],[36.5,32.3617],[36.5016,32.3604],[36.6921,32.3392],[36.704,32.3268],[36.7217,32.333],[36.8348,32.3164],[36.8668,32.3426],[36.9529,32.3887],[37.0928,32.4643],[37.4643,32.664]]]},"properties":{"code":"SY13","nameAr":"السويداء","nameEn":"As-Sweida","centerLat":32.75555457,"centerLng":36.8948409}},
{"type":"Feature","geometry":{"type":"Polygon","coordinates":[[[36.3252,33.5641],[36.3152,33.5651],[36.2804,33.5636],[36.2699,33.5579],[36.2389,33.546],[36.2316,33.5419],[36.204,33.5339],[36.1971,33.5251],[36.1992,33.5146],[36.2087,33.516],[36.2102,33.4859],[36.207,33.4693],[36.2188,33.4724],[36.2223,33.4683],[36.238,33.4783],[36.2653,33.4698],[36.2715,33.4698],[36.2828,33.4586],[36.2986,33.4627],[36.3032,33.4674],[36.3137,33.4619],[36.3175,33.4845],[36.3251,33.4858],[36.3402,33.5185],[36.3505,33.5209],[36.344,33.5266],[36.3531,33.5456],[36.3559,33.5567],[36.3362,33.5589],[36.3343,33.565],[36.3252,33.5641]]]},"properties":{"code":"SY01","nameAr":"دمشق","nameEn":"Damascus","centerLat":33.51552386,"centerLng":36.27375179}},
{"type":"Feature","geometry":{"type":"Polygon","coordinates":[[[36.5723,33.1827],[36.5647,33.2174],[36.5561,33.2463],[36.5486,33.2522],[36.5505,33.2599],[36.5358,33.2805],[36.5281,33.2836],[36.5147,33.2967],[36.5056,33.2962],[36.4909,33.2795],[36.4713,33.2732],[36.466,33.2696],[36.4496,33.268],[36.4396,33.2554],[36.4259,33.2487],[36.3933,33.2173],[36.3981,33.1949],[36.3958,33.1916],[36.3683,33.1839],[36.3464,33.1989],[36.3386,33.1984],[36.3318,33.2048],[36.3224,33.2097],[36.316,33.2252],[36.2978,33.2272],[36.2825,33.2344],[36.2782,33.2433],[36.2682,33.255],[36.2614,33.2602],[36.2445,33.2669],[36.236,33.2735],[36.2265,33.2695],[36.2165,33.2173],[36.2087,33.2099],[36.1937,33.2114],[36.1828,33.2182],[36.1637,33.2125],[36.157,33.1973],[36.1447,33.1917],[36.1208,33.1984],[36.1095,33.195],[36.0911,33.1969],[36.0802,33.1929],[36.0761,33.1766],[36.0795,33.1675],[36.0701,33.1613],[36.0573,33.1617],[36.0507,33.1573],[36.0356,33.1539],[36.0252,33.1537],[36.0092,33.1642],[35.9988,33.1637],[35.9895,33.1588],[35.9847,33.149],[35.9848,33.1387],[35.9889,33.1257],[35.9857,33.1151],[35.9775,33.1012],[35.9685,33.0919],[35.9654,33.0662],[35.9463,33.0443],[35.9463,33.0364],[35.9634,33.0192],[35.9675,33.0034],[35.9781,32.9941],[35.9835,32.9865],[35.9822,32.9694],[35.9935,32.9608],[35.9973,32.9376],[35.9878,32.9295],[35.9756,32.9283],[35.9699,32.9389],[35.9597,32.9419],[35.9496,32.9292],[35.9395,32.9311],[35.938,32.925],[35.9448,32.917],[35.9444,32.9039],[35.9387,32.8975],[35.9259,32.8961],[35.9123,32.8829],[35.8968,32.8821],[35.8836,32.8684],[35.8731,32.8551],[35.8656,32.8499],[35.8525,32.8449],[35.8463,32.835],[35.8482,32.825],[35.8434,32.8152],[35.8305,32.8056],[35.8207,32.7936],[35.8096,32.7889],[35.8078,32.7841],[35.7988,32.7798],[35.7858,32.7771],[35.7774,32.7695],[35.7735,32.7623],[35.7606,32.7519],[35.7469,32.7321],[35.7557,32.7354],[35.7642,32.7473],[35.7692,32.7509],[35.7796,32.752],[35.8014,32.7596],[35.8093,32.7511],[35.8045,32.7427],[35.8076,32.7384],[35.8171,32.7396],[35.8263,32.7311],[35.8413,32.7294],[35.8619,32.7357],[35.8784,32.7357],[35.8864,32.7331],[35.9013,32.7248],[35.9091,32.7259],[35.9204,32.7221],[35.9368,32.7241],[35.9452,32.7177],[35.948,32.707],[35.9627,32.697],[35.9746,32.6969],[35.9827,32.6906],[35.9829,32.682],[35.9726,32.6735],[35.983,32.6651],[35.9936,32.6614],[36.0108,32.6628],[36.0329,32.6579],[36.0363,32.6544],[36.0392,32.6425],[36.0388,32.6308],[36.0349,32.6071],[36.0363,32.6039],[36.0589,32.5878],[36.0704,32.5758],[36.0844,32.5492],[36.0887,32.5367],[36.0908,32.5179],[36.1106,32.5231],[36.1338,32.5239],[36.1647,32.5222],[36.1784,32.5183],[36.2007,32.5285],[36.2056,32.5284],[36.2178,32.5218],[36.2577,32.4929],[36.2961,32.4705],[36.3365,32.4427],[36.4006,32.3872],[36.4097,32.3822],[36.4636,32.3773],[36.4802,32.3734],[36.4928,32.3675],[36.5,32.3617],[36.5057,32.3738],[36.5144,32.4054],[36.5217,32.4374],[36.5436,32.4635],[36.5429,32.4752],[36.5343,32.489],[36.5141,32.5097],[36.5074,32.5372],[36.5124,32.5557],[36.5049,32.5661],[36.4913,32.569],[36.4385,32.5661],[36.4131,32.5679],[36.405,32.5841],[36.4005,32.6069],[36.4,32.6161],[36.4226,32.6255],[36.4319,32.6281],[36.4528,32.63],[36.459,32.6341],[36.464,32.6426],[36.464,32.6586],[36.4559,32.6655],[36.442,32.6733],[36.412,32.6833],[36.4026,32.6852],[36.391,32.6966],[36.3803,32.6965],[36.3725,32.7037],[36.3665,32.7042],[36.358,32.71],[36.3713,32.7284],[36.3753,32.7442],[36.3927,32.7477],[36.3887,32.777],[36.3823,32.7871],[36.3758,32.8269],[36.3713,32.8669],[36.3746,32.8962],[36.382,32.916],[36.3763,32.9421],[36.3941,32.9627],[36.42,32.9845],[36.4284,32.9885],[36.4659,32.9973],[36.4851,32.9998],[36.5059,33.0009],[36.5341,33.0054],[36.5545,33.0167],[36.5528,33.0265],[36.5394,33.042],[36.5349,33.0538],[36.5179,33.0577],[36.5008,33.0878],[36.4924,33.1053],[36.4922,33.1275],[36.4978,33.1564],[36.5036,33.1673],[36.5238,33.1789],[36.5723,33.1827]]]},"properties":{"code":"SY12","nameAr":"درعا","nameEn":"Dar'a","centerLat":32.83021736,"centerLng":36.11161335}},
{"type":"Feature","geometry":{"type":"Polygon","coordinates":[[[41.2886,35.4939],[41.2092,35.5384],[41.1098,35.5471],[41.0258,35.5513],[40.9709,35.5494],[40.9283,35.5638],[40.8611,35.5875],[40.7521,35.6172],[40.7352,35.628],[40.7229,35.6402],[40.6932,35.6526],[40.6612,35.674],[40.6336,35.6946],[40.618,35.7114],[40.5784,35.7384],[40.5531,35.7577],[40.5382,35.7715],[40.5011,35.7886],[40.4471,35.8373],[40.4159,35.8629],[40.3942,35.8841],[40.3894,35.8964],[40.383,35.9054],[40.3761,35.924],[40.3644,35.9384],[40.3459,35.9469],[40.3224,35.9528],[40.3138,35.9586],[40.2857,35.9703],[40.2595,35.9844],[40.2389,36.005],[40.2333,36.0257],[40.2001,36.0289],[40.1864,36.0369],[40.1536,36.06],[40.1075,36.0812],[40.099,36.0863],[40.0881,36.1194],[40.0765,36.1363],[40.0667,36.1452],[40.0551,36.1512],[40.0215,36.1732],[40.0064,36.1818],[40.0114,36.1923],[40.0022,36.2094],[39.9899,36.2165],[39.9556,36.2338],[39.9442,36.2453],[39.8991,36.3358],[39.8944,36.3382],[39.8957,36.3065],[39.8989,36.2695],[39.8935,36.2449],[39.8946,36.24],[39.8841,36.2247],[39.8801,36.2153],[39.8637,36.2094],[39.8544,36.1882],[39.8428,36.1796],[39.8425,36.1729],[39.8294,36.1506],[39.8348,36.1462],[39.8366,36.1383],[39.8431,36.1313],[39.8275,36.1111],[39.8171,36.109],[39.8098,36.0967],[39.7999,36.0862],[39.8007,36.0819],[39.7948,36.0704],[39.7843,36.0631],[39.78,36.0497],[39.7677,36.0427],[39.7639,36.0357],[39.7465,36.0325],[39.7422,36.0266],[39.7425,36.0159],[39.7272,36.0094],[39.7237,36.0025],[39.7137,35.9941],[39.7033,35.989],[39.6984,35.9692],[39.7076,35.955],[39.7014,35.9297],[39.7038,35.8259],[39.6976,35.7763],[39.6945,35.7686],[39.6846,35.7766],[39.6577,35.7756],[39.6429,35.762],[39.6402,35.7526],[39.6144,35.7221],[39.5809,35.684],[39.4851,35.5677],[39.4714,35.5531],[39.2682,35.306],[39.2449,35.278],[39.2974,35.2509],[39.3697,35.1977],[39.4164,35.1625],[39.4676,35.0947],[39.5751,34.9496],[39.5996,34.918],[39.7002,34.7901],[39.8022,34.6604],[40.0277,34.3736],[40.2195,34.1296],[40.265,34.068],[40.9977,34.4131],[41.0124,34.4199],[41.0172,34.4395],[41.033,34.4521],[41.1395,34.6642],[41.2345,34.7772],[41.2377,34.785],[41.2296,34.8601],[41.2297,34.9378],[41.2181,35.1322],[41.2253,35.2042],[41.2333,35.248],[41.2424,35.2855],[41.2749,35.3849],[41.2826,35.4862],[41.2886,35.4939]]]},"properties":{"code":"SY09","nameAr":"دير الزور","nameEn":"Deir-ez-Zor","centerLat":35.20098114,"centerLng":40.29511312}},
{"type":"Feature","geometry":{"type":"Polygon","coordinates":[[[37.1991,35.5462],[37.1958,35.5423],[37.1953,35.5326],[37.1815,35.5173],[37.1655,35.5129],[37.1612,35.5045],[37.1615,35.4893],[37.1561,35.4777],[37.1493,35.4707],[37.143,35.4588],[37.122,35.4666],[37.117,35.4719],[37.1043,35.4686],[37.1015,35.4585],[37.1027,35.447],[37.1067,35.4419],[37.1045,35.4289],[37.089,35.4196],[37.0798,35.4109],[37.0386,35.4085],[37.0347,35.4118],[37.0243,35.4108],[37.0158,35.4128],[37.0097,35.4272],[37.005,35.4316],[36.9967,35.4314],[36.9888,35.4131],[36.9675,35.404],[36.957,35.3953],[36.9538,35.3833],[36.9482,35.3804],[36.9298,35.3836],[36.9167,35.383],[36.8956,35.3782],[36.8786,35.3825],[36.8803,35.3908],[36.8776,35.4023],[36.8609,35.4121],[36.8388,35.4135],[36.8143,35.4107],[36.7959,35.414],[36.7899,35.4077],[36.7457,35.4031],[36.7106,35.4042],[36.7039,35.4028],[36.6755,35.4051],[36.6704,35.3996],[36.6571,35.3962],[36.6505,35.3849],[36.651,35.3799],[36.6392,35.3793],[36.6395,35.3954],[36.6249,35.4014],[36.5957,35.4043],[36.5875,35.4034],[36.5895,35.4167],[36.5812,35.4186],[36.5664,35.4148],[36.5549,35.4091],[36.5385,35.4101],[36.5187,35.4083],[36.5171,35.416],[36.5258,35.4324],[36.5084,35.4427],[36.5067,35.4536],[36.475,35.4633],[36.4741,35.4756],[36.4568,35.4773],[36.4589,35.4884],[36.4586,35.5064],[36.4511,35.5095],[36.4462,35.5166],[36.4493,35.5253],[36.4449,35.5347],[36.43,35.53],[36.4251,35.5353],[36.4083,35.5356],[36.3966,35.5378],[36.3932,35.5431],[36.3924,35.5595],[36.3965,35.5695],[36.394,35.5797],[36.3988,35.5836],[36.4019,35.5963],[36.4076,35.5967],[36.4055,35.606],[36.3968,35.6072],[36.3953,35.6121],[36.3973,35.6378],[36.3956,35.6479],[36.4021,35.6621],[36.4007,35.6692],[36.3868,35.6702],[36.3873,35.6749],[36.406,35.6761],[36.411,35.6912],[36.4102,35.7052],[36.3939,35.7208],[36.3809,35.7256],[36.3774,35.7178],[36.3684,35.7161],[36.3642,35.7213],[36.3459,35.7195],[36.3421,35.723],[36.3412,35.7355],[36.3458,35.7427],[36.3325,35.7582],[36.3281,35.761],[36.3166,35.7601],[36.3141,35.7468],[36.2938,35.7521],[36.2791,35.7445],[36.2568,35.7499],[36.2294,35.7518],[36.2346,35.7386],[36.2435,35.7343],[36.2587,35.7201],[36.2496,35.7154],[36.2528,35.7054],[36.2474,35.701],[36.2456,35.6928],[36.2508,35.6878],[36.2494,35.6761],[36.2397,35.6759],[36.2333,35.669],[36.2191,35.6711],[36.2105,35.6815],[36.2052,35.6653],[36.2168,35.6581],[36.2135,35.6528],[36.2226,35.6487],[36.2239,35.6415],[36.2189,35.6265],[36.2159,35.6264],[36.216,35.6092],[36.2246,35.6014],[36.2287,35.5793],[36.2283,35.5735],[36.221,35.5676],[36.2223,35.5102],[36.221,35.5073],[36.2227,35.4801],[36.2221,35.4671],[36.2153,35.4595],[36.2194,35.4543],[36.2092,35.4478],[36.2099,35.4379],[36.2055,35.419],[36.2081,35.4101],[36.2151,35.3973],[36.2342,35.3752],[36.2269,35.3613],[36.2296,35.3504],[36.2374,35.3399],[36.2307,35.3344],[36.2303,35.3254],[36.2376,35.3077],[36.2343,35.2983],[36.2353,35.2887],[36.2264,35.254],[36.2365,35.2509],[36.2441,35.2438],[36.244,35.2305],[36.2482,35.2202],[36.255,35.2119],[36.2537,35.1967],[36.2554,35.1828],[36.2633,35.1567],[36.2662,35.1525],[36.2663,35.1395],[36.2729,35.1273],[36.2689,35.1163],[36.2723,35.1107],[36.2644,35.1008],[36.2653,35.0853],[36.249,35.0785],[36.2486,35.07],[36.2541,35.0666],[36.2428,35.0353],[36.2376,35.0265],[36.1999,35.0239],[36.183,35.012],[36.1593,35.0052],[36.1544,34.9974],[36.15,34.9828],[36.137,34.9787],[36.1377,34.9722],[36.154,34.9754],[36.1731,34.9845],[36.1873,34.9866],[36.2109,34.9797],[36.2381,34.9775],[36.2614,34.9587],[36.269,34.9485],[36.2691,34.9277],[36.266,34.9192],[36.2748,34.919],[36.2837,34.9145],[36.2976,34.918],[36.3004,34.9102],[36.3147,34.8983],[36.3219,34.8902],[36.3323,34.8855],[36.3398,34.8744],[36.3374,34.8678],[36.3427,34.8568],[36.3532,34.858],[36.3589,34.8633],[36.3657,34.875],[36.3812,34.8666],[36.3837,34.8549],[36.3943,34.8587],[36.3993,34.8574],[36.4124,34.8675],[36.4263,34.8733],[36.4375,34.872],[36.4461,34.876],[36.4665,34.8823],[36.4671,34.8979],[36.4633,34.8993],[36.4606,34.92],[36.4701,34.9196],[36.4868,34.9243],[36.4849,34.9394],[36.5085,34.9529],[36.5239,34.9543],[36.5332,34.949],[36.5359,34.9407],[36.5198,34.9319],[36.5205,34.9243],[36.5403,34.9234],[36.544,34.9147],[36.5508,34.9131],[36.5515,34.9001],[36.5621,34.8937],[36.5723,34.9009],[36.5746,34.9117],[36.5729,34.9198],[36.5859,34.9218],[36.5969,34.9272],[36.6041,34.9246],[36.609,34.9123],[36.6137,34.9082],[36.6262,34.9094],[36.634,34.9018],[36.6585,34.9057],[36.66,34.9126],[36.6705,34.9197],[36.6881,34.9347],[36.6963,34.9381],[36.7083,34.9355],[36.7202,34.9462],[36.7338,34.9431],[36.7364,34.9314],[36.7427,34.933],[36.7426,34.9393],[36.7504,34.9409],[36.7526,34.934],[36.7632,34.9374],[36.7666,34.9467],[36.7712,34.9495],[36.782,34.9494],[36.785,34.9457],[36.7969,34.9431],[36.8154,34.9498],[36.817,34.9593],[36.8316,34.9577],[36.8498,34.9705],[36.8544,34.9685],[36.8671,34.9728],[36.8699,34.9693],[36.8844,34.9708],[36.8974,34.9772],[36.9089,34.9776],[36.9206,34.969],[36.9398,34.9501],[36.9437,34.9408],[36.9578,34.9278],[36.9705,34.9274],[36.9761,34.9118],[36.9702,34.8834],[36.9866,34.875],[36.9954,34.8634],[37.0147,34.8653],[37.0296,34.876],[37.0585,34.8946],[37.0812,34.9064],[37.1014,34.911],[37.1114,34.9088],[37.1138,34.9132],[37.133,34.9187],[37.1482,34.9185],[37.1523,34.9103],[37.1576,34.9084],[37.1723,34.9209],[37.1754,34.9308],[37.1909,34.9382],[37.2073,34.9326],[37.2156,34.9359],[37.2219,34.9341],[37.2297,34.9264],[37.2348,34.9121],[37.2557,34.92],[37.2827,34.9142],[37.2905,34.9364],[37.3077,34.9401],[37.3025,34.9517],[37.3101,34.9584],[37.3275,34.9597],[37.3366,34.9728],[37.3562,34.9777],[37.3838,34.9749],[37.3864,34.9798],[37.4035,34.9742],[37.4206,34.9765],[37.4337,34.9737],[37.4404,34.9747],[37.4742,34.9721],[37.4895,34.9692],[37.4964,34.9635],[37.4986,34.9534],[37.5218,34.9536],[37.5441,34.9368],[37.5845,34.9543],[37.6415,34.9708],[37.6889,35.03],[37.7028,35.0606],[37.7125,35.0913],[37.7518,35.0989],[37.7668,35.0994],[37.7877,35.1036],[37.807,35.1044],[37.8387,35.0802],[37.8542,35.0713],[37.8682,35.0679],[37.8865,35.0595],[37.9046,35.039],[37.9086,35.02],[37.9099,35.004],[37.9178,34.9885],[37.9224,34.9882],[37.9549,34.9734],[37.9766,34.9584],[38.0126,34.9297],[38.0463,34.8902],[38.0573,34.882],[38.0673,34.8881],[38.0901,34.9079],[38.0997,34.9223],[38.1063,34.9383],[38.1343,34.984],[38.1608,35.0055],[38.1783,35.0135],[38.2505,35.0379],[38.2701,35.0424],[38.3296,35.0619],[38.3489,35.0796],[38.3497,35.085],[38.3404,35.0895],[38.329,35.1012],[38.3223,35.1236],[38.3389,35.1548],[38.3792,35.1761],[38.3982,35.1899],[38.4263,35.2277],[38.4341,35.2441],[38.45,35.2939],[38.4425,35.3966],[38.3168,35.3954],[38.226,35.3809],[38.1759,35.3851],[38.0484,35.4171],[37.9653,35.4322],[37.8755,35.4401],[37.8078,35.4428],[37.7859,35.4805],[37.732,35.4805],[37.7329,35.463],[37.5992,35.461],[37.4988,35.4729],[37.4998,35.4751],[37.4956,35.4988],[37.485,35.5187],[37.4427,35.5476],[37.417,35.5556],[37.3831,35.5362],[37.3848,35.5317],[37.3855,35.5083],[37.368,35.5153],[37.3461,35.5069],[37.3353,35.5159],[37.3294,35.512],[37.3139,35.524],[37.3228,35.5274],[37.3246,35.5416],[37.3037,35.5394],[37.2985,35.5466],[37.2875,35.5399],[37.2832,35.5326],[37.2691,35.5331],[37.2606,35.5306],[37.2504,35.5334],[37.2406,35.5547],[37.2341,35.5606],[37.2216,35.5587],[37.2195,35.5457],[37.2154,35.5442],[37.1991,35.5462]]]},"properties":{"code":"SY05","nameAr":"حماة","nameEn":"Hama","centerLat":35.30983664,"centerLng":37.34269866}},
{"type":"Feature","geometry":{"type":"Polygon","coordinates":[[[39.2449,35.278],[39.2256,35.2844],[39.2092,35.2867],[39.2008,35.2933],[39.2018,35.3056],[39.1968,35.3165],[39.1743,35.3256],[39.1569,35.3275],[39.1428,35.3272],[39.1343,35.324],[38.8713,35.3711],[38.8249,35.3756],[38.5753,35.3989],[38.4425,35.3966],[38.45,35.2939],[38.4341,35.2441],[38.4263,35.2277],[38.3982,35.1899],[38.3792,35.1761],[38.3389,35.1548],[38.3223,35.1236],[38.329,35.1012],[38.3404,35.0895],[38.3497,35.085],[38.3489,35.0796],[38.3296,35.0619],[38.2701,35.0424],[38.2505,35.0379],[38.1783,35.0135],[38.1608,35.0055],[38.1343,34.984],[38.1063,34.9383],[38.0997,34.9223],[38.0901,34.9079],[38.0673,34.8881],[38.0573,34.882],[38.0463,34.8902],[38.0126,34.9297],[37.9766,34.9584],[37.9549,34.9734],[37.9224,34.9882],[37.9178,34.9885],[37.9099,35.004],[37.9086,35.02],[37.9046,35.039],[37.8865,35.0595],[37.8682,35.0679],[37.8542,35.0713],[37.8387,35.0802],[37.807,35.1044],[37.7877,35.1036],[37.7668,35.0994],[37.7518,35.0989],[37.7125,35.0913],[37.7028,35.0606],[37.6889,35.03],[37.6415,34.9708],[37.5845,34.9543],[37.5441,34.9368],[37.5218,34.9536],[37.4986,34.9534],[37.4964,34.9635],[37.4895,34.9692],[37.4742,34.9721],[37.4404,34.9747],[37.4337,34.9737],[37.4206,34.9765],[37.4035,34.9742],[37.3864,34.9798],[37.3838,34.9749],[37.3562,34.9777],[37.3366,34.9728],[37.3275,34.9597],[37.3101,34.9584],[37.3025,34.9517],[37.3077,34.9401],[37.2905,34.9364],[37.2827,34.9142],[37.2557,34.92],[37.2348,34.9121],[37.2297,34.9264],[37.2219,34.9341],[37.2156,34.9359],[37.2073,34.9326],[37.1909,34.9382],[37.1754,34.9308],[37.1723,34.9209],[37.1576,34.9084],[37.1523,34.9103],[37.1482,34.9185],[37.133,34.9187],[37.1138,34.9132],[37.1114,34.9088],[37.1014,34.911],[37.0812,34.9064],[37.0585,34.8946],[37.0296,34.876],[37.0147,34.8653],[36.9954,34.8634],[36.9866,34.875],[36.9702,34.8834],[36.9761,34.9118],[36.9705,34.9274],[36.9578,34.9278],[36.9437,34.9408],[36.9398,34.9501],[36.9206,34.969],[36.9089,34.9776],[36.8974,34.9772],[36.8844,34.9708],[36.8699,34.9693],[36.8671,34.9728],[36.8544,34.9685],[36.8498,34.9705],[36.8316,34.9577],[36.817,34.9593],[36.8154,34.9498],[36.7969,34.9431],[36.785,34.9457],[36.782,34.9494],[36.7712,34.9495],[36.7666,34.9467],[36.7632,34.9374],[36.7526,34.934],[36.7504,34.9409],[36.7426,34.9393],[36.7427,34.933],[36.7364,34.9314],[36.7338,34.9431],[36.7202,34.9462],[36.7083,34.9355],[36.6963,34.9381],[36.6881,34.9347],[36.6705,34.9197],[36.66,34.9126],[36.6585,34.9057],[36.634,34.9018],[36.6262,34.9094],[36.6137,34.9082],[36.609,34.9123],[36.6041,34.9246],[36.5969,34.9272],[36.5859,34.9218],[36.5729,34.9198],[36.5746,34.9117],[36.5723,34.9009],[36.5621,34.8937],[36.5515,34.9001],[36.5508,34.9131],[36.544,34.9147],[36.5403,34.9234],[36.5205,34.9243],[36.5198,34.9319],[36.5359,34.9407],[36.5332,34.949],[36.5239,34.9543],[36.5085,34.9529],[36.4849,34.9394],[36.4868,34.9243],[36.4701,34.9196],[36.4606,34.92],[36.4633,34.8993],[36.4671,34.8979],[36.4665,34.8823],[36.4461,34.876],[36.4375,34.872],[36.4263,34.8733],[36.4124,34.8675],[36.3993,34.8574],[36.3943,34.8587],[36.3837,34.8549],[36.3812,34.8666],[36.3657,34.875],[36.3589,34.8633],[36.3532,34.858],[36.3427,34.8568],[36.3374,34.8678],[36.3398,34.8744],[36.3323,34.8855],[36.3219,34.8902],[36.3147,34.8983],[36.3004,34.9102],[36.2976,34.918],[36.2837,34.9145],[36.2853,34.9103],[36.2827,34.8976],[36.2665,34.8858],[36.2671,34.8735],[36.2715,34.8689],[36.2888,34.8634],[36.3035,34.8683],[36.3108,34.8782],[36.3259,34.8808],[36.3281,34.874],[36.3151,34.8642],[36.3095,34.8565],[36.2849,34.8376],[36.2693,34.8073],[36.2595,34.8039],[36.2442,34.7943],[36.22,34.7891],[36.2039,34.7798],[36.1994,34.774],[36.1884,34.7669],[36.1702,34.7591],[36.1604,34.7444],[36.145,34.7346],[36.1513,34.7239],[36.1477,34.7],[36.1284,34.6916],[36.1256,34.6856],[36.1256,34.6749],[36.129,34.6646],[36.1168,34.6491],[36.1173,34.638],[36.1265,34.6422],[36.1407,34.6343],[36.1639,34.6332],[36.1725,34.6282],[36.1771,34.6327],[36.1895,34.6375],[36.2011,34.6371],[36.2121,34.6306],[36.2376,34.6269],[36.2442,34.6357],[36.2655,34.6269],[36.2876,34.6298],[36.2957,34.6344],[36.3033,34.6448],[36.3075,34.6563],[36.3024,34.6675],[36.3071,34.6772],[36.3163,34.6846],[36.3327,34.6837],[36.344,34.6795],[36.3506,34.6697],[36.3503,34.6603],[36.3672,34.6426],[36.3845,34.6311],[36.3919,34.6285],[36.4029,34.6305],[36.4113,34.6266],[36.4235,34.6172],[36.429,34.6162],[36.4452,34.6288],[36.4631,34.6354],[36.4601,34.6215],[36.4603,34.6026],[36.4531,34.5903],[36.434,34.5914],[36.4305,34.6001],[36.4201,34.6075],[36.4064,34.607],[36.403,34.5947],[36.4049,34.5787],[36.4143,34.5692],[36.4161,34.5599],[36.399,34.5502],[36.3645,34.5333],[36.3354,34.5246],[36.3291,34.517],[36.3329,34.505],[36.3381,34.5],[36.3515,34.4993],[36.3588,34.5045],[36.368,34.4985],[36.3932,34.5001],[36.4086,34.5085],[36.4224,34.5112],[36.4358,34.5073],[36.4486,34.5064],[36.4458,34.4926],[36.4492,34.4825],[36.4593,34.4785],[36.4629,34.4643],[36.4721,34.46],[36.486,34.4576],[36.4951,34.4499],[36.5074,34.4502],[36.5141,34.444],[36.5133,34.4399],[36.5217,34.4346],[36.5284,34.4339],[36.5361,34.4266],[36.5488,34.4242],[36.5555,34.4151],[36.5563,34.4072],[36.553,34.3963],[36.5447,34.3841],[36.5304,34.371],[36.5444,34.3564],[36.5497,34.3421],[36.5609,34.3322],[36.5601,34.3221],[36.5625,34.3166],[36.5766,34.3127],[36.5907,34.3126],[36.6005,34.306],[36.6021,34.2978],[36.5959,34.2903],[36.5769,34.2789],[36.5753,34.2745],[36.5854,34.2515],[36.5858,34.233],[36.5906,34.2251],[36.6005,34.2226],[36.6629,34.2338],[36.6947,34.2245],[36.7264,34.229],[36.7507,34.2301],[36.7597,34.2356],[36.7833,34.2408],[36.7943,34.2415],[36.7933,34.2262],[36.8198,34.2218],[36.8235,34.219],[36.8254,34.2058],[36.8481,34.1944],[36.8633,34.1854],[36.872,34.1877],[36.8806,34.185],[36.9007,34.1857],[36.9231,34.1649],[36.9433,34.1323],[36.9658,34.1135],[36.9832,34.1022],[37.0058,34.0896],[36.9848,34.0705],[36.9513,34.0497],[36.9708,34.0381],[36.9838,34.0333],[36.9968,34.0209],[37.0187,34.0209],[37.0085,33.9596],[37.0092,33.94],[37.1386,33.9382],[37.191,33.9387],[37.2957,33.9316],[37.3364,33.9426],[37.3962,33.9568],[37.4227,33.9522],[37.4528,33.9692],[37.4838,33.9811],[37.5294,33.9846],[37.5518,33.9875],[37.5797,33.9861],[37.5921,33.9845],[37.6017,33.9808],[37.6097,33.9731],[37.6137,33.9585],[37.6094,33.9465],[37.604,33.9418],[37.6057,33.9318],[37.611,33.9235],[37.6207,33.9179],[37.6557,33.9095],[37.7042,33.9019],[37.7693,33.895],[37.8558,33.8849],[38.0645,33.8608],[38.2694,33.8361],[38.463,33.8138],[38.5827,33.8001],[38.7987,33.7752],[38.9334,33.7597],[39.1139,33.5455],[39.1253,33.5315],[39.1651,33.5501],[39.8661,33.8802],[40.265,34.068],[40.2195,34.1296],[40.0277,34.3736],[39.8022,34.6604],[39.7002,34.7901],[39.5996,34.918],[39.5751,34.9496],[39.4676,35.0947],[39.4164,35.1625],[39.3697,35.1977],[39.2974,35.2509],[39.2449,35.278]]]},"properties":{"code":"SY04","nameAr":"حمص","nameEn":"Homs","centerLat":34.46480751,"centerLng":38.20928411}},
{"type":"Feature","geometry":{"type":"Polygon","coordinates":[[[37.1991,35.5462],[37.2017,35.5544],[37.188,35.5576],[37.1749,35.5502],[37.1667,35.553],[37.1565,35.5829],[37.1429,35.5876],[37.1234,35.5887],[37.1109,35.5931],[37.1209,35.6048],[37.118,35.6103],[37.1314,35.6236],[37.1398,35.6288],[37.1455,35.6359],[37.1342,35.6396],[37.1282,35.6444],[37.1353,35.6677],[37.123,35.6732],[37.1112,35.6707],[37.1034,35.6736],[37.0996,35.6795],[37.1005,35.6872],[37.1099,35.7016],[37.1198,35.7078],[37.1202,35.727],[37.117,35.7399],[37.1048,35.7416],[37.1035,35.7471],[37.1154,35.7494],[37.1197,35.758],[37.108,35.765],[37.1176,35.7778],[37.1226,35.7807],[37.1368,35.7814],[37.1367,35.7963],[37.1153,35.8017],[37.1145,35.8095],[37.1211,35.8264],[37.1092,35.8312],[37.1034,35.8291],[37.1032,35.8204],[37.0916,35.8187],[37.0881,35.8227],[37.0767,35.8275],[37.0607,35.837],[37.0526,35.8372],[37.0325,35.8429],[37.0313,35.8245],[37.025,35.817],[37.0189,35.8203],[37.0061,35.8184],[36.9905,35.8057],[36.9848,35.8123],[36.9852,35.8254],[36.9905,35.8362],[36.9809,35.8381],[36.9766,35.8452],[36.9594,35.8503],[36.954,35.8634],[36.9596,35.8701],[36.9557,35.8834],[36.9378,35.8892],[36.9351,35.8975],[36.9421,35.9042],[36.941,35.9111],[36.9355,35.9158],[36.9204,35.9127],[36.9016,35.9136],[36.9005,35.9253],[36.8931,35.9286],[36.8885,35.9361],[36.8794,35.9332],[36.8763,35.9379],[36.8749,35.9604],[36.8681,35.9709],[36.8676,35.9815],[36.8733,35.9884],[36.8719,36.0012],[36.8754,36.0152],[36.8827,36.0244],[36.8827,36.0388],[36.8794,36.044],[36.8567,36.0444],[36.8455,36.0404],[36.8361,36.0539],[36.8335,36.0652],[36.8227,36.0659],[36.807,36.0716],[36.789,36.0698],[36.7808,36.0663],[36.7685,36.0675],[36.7467,36.0803],[36.7414,36.0848],[36.7444,36.0997],[36.7546,36.1048],[36.7558,36.1093],[36.7496,36.1148],[36.7324,36.1205],[36.7254,36.1264],[36.7181,36.1425],[36.7103,36.1465],[36.715,36.1546],[36.7329,36.1569],[36.7432,36.1629],[36.7602,36.1651],[36.7734,36.1858],[36.7665,36.1888],[36.774,36.1954],[36.7806,36.2075],[36.7982,36.2165],[36.8123,36.2148],[36.8282,36.2172],[36.8331,36.231],[36.8403,36.2338],[36.8356,36.2491],[36.8224,36.2502],[36.8239,36.2584],[36.8162,36.2676],[36.8227,36.282],[36.8152,36.2844],[36.7954,36.2809],[36.7919,36.2834],[36.7885,36.2998],[36.7834,36.3031],[36.7731,36.3018],[36.7655,36.3044],[36.7613,36.3104],[36.7539,36.3287],[36.7486,36.3355],[36.7402,36.3387],[36.7257,36.338],[36.7228,36.3345],[36.7294,36.3277],[36.7154,36.3226],[36.6932,36.3215],[36.6795,36.3223],[36.6691,36.3205],[36.6711,36.3024],[36.6948,36.2969],[36.7003,36.2922],[36.6923,36.2764],[36.6958,36.266],[36.706,36.2552],[36.7007,36.2443],[36.6842,36.2373],[36.6749,36.2293],[36.6406,36.2292],[36.6274,36.2177],[36.6093,36.2175],[36.5839,36.2321],[36.5782,36.2325],[36.5574,36.2281],[36.5426,36.2381],[36.5228,36.2381],[36.5095,36.23],[36.4954,36.2345],[36.4924,36.2328],[36.4892,36.2187],[36.4817,36.2055],[36.4711,36.2018],[36.4575,36.2084],[36.4353,36.2113],[36.4267,36.2145],[36.4129,36.2232],[36.4034,36.2264],[36.3976,36.2232],[36.3976,36.2127],[36.4032,36.1996],[36.3987,36.1898],[36.3888,36.1885],[36.3817,36.1807],[36.3767,36.1694],[36.3883,36.1515],[36.392,36.1426],[36.3812,36.1188],[36.386,36.0994],[36.3978,36.0838],[36.3888,36.0682],[36.3947,36.0525],[36.3925,36.0398],[36.3808,36.026],[36.3823,36.0099],[36.3786,36.001],[36.3684,35.9948],[36.3569,35.992],[36.3442,35.9924],[36.3172,36.0041],[36.3028,35.9964],[36.2979,35.9917],[36.2946,35.9802],[36.3061,35.9607],[36.3025,35.9574],[36.2897,35.9539],[36.2789,35.9548],[36.2634,35.9617],[36.2445,35.9635],[36.2288,35.9604],[36.2127,35.9515],[36.1992,35.9356],[36.1877,35.9185],[36.1809,35.9017],[36.1891,35.8844],[36.1831,35.8356],[36.1691,35.8154],[36.1548,35.8202],[36.1514,35.812],[36.1476,35.7947],[36.1506,35.7886],[36.1609,35.7839],[36.169,35.785],[36.1887,35.7749],[36.1979,35.767],[36.1998,35.7608],[36.2075,35.7526],[36.2294,35.7518],[36.2568,35.7499],[36.2791,35.7445],[36.2938,35.7521],[36.3141,35.7468],[36.3166,35.7601],[36.3281,35.761],[36.3325,35.7582],[36.3458,35.7427],[36.3412,35.7355],[36.3421,35.723],[36.3459,35.7195],[36.3642,35.7213],[36.3684,35.7161],[36.3774,35.7178],[36.3809,35.7256],[36.3939,35.7208],[36.4102,35.7052],[36.411,35.6912],[36.406,35.6761],[36.3873,35.6749],[36.3868,35.6702],[36.4007,35.6692],[36.4021,35.6621],[36.3956,35.6479],[36.3973,35.6378],[36.3953,35.6121],[36.3968,35.6072],[36.4055,35.606],[36.4076,35.5967],[36.4019,35.5963],[36.3988,35.5836],[36.394,35.5797],[36.3965,35.5695],[36.3924,35.5595],[36.3932,35.5431],[36.3966,35.5378],[36.4083,35.5356],[36.4251,35.5353],[36.43,35.53],[36.4449,35.5347],[36.4493,35.5253],[36.4462,35.5166],[36.4511,35.5095],[36.4586,35.5064],[36.4589,35.4884],[36.4568,35.4773],[36.4741,35.4756],[36.475,35.4633],[36.5067,35.4536],[36.5084,35.4427],[36.5258,35.4324],[36.5171,35.416],[36.5187,35.4083],[36.5385,35.4101],[36.5549,35.4091],[36.5664,35.4148],[36.5812,35.4186],[36.5895,35.4167],[36.5875,35.4034],[36.5957,35.4043],[36.6249,35.4014],[36.6395,35.3954],[36.6392,35.3793],[36.651,35.3799],[36.6505,35.3849],[36.6571,35.3962],[36.6704,35.3996],[36.6755,35.4051],[36.7039,35.4028],[36.7106,35.4042],[36.7457,35.4031],[36.7899,35.4077],[36.7959,35.414],[36.8143,35.4107],[36.8388,35.4135],[36.8609,35.4121],[36.8776,35.4023],[36.8803,35.3908],[36.8786,35.3825],[36.8956,35.3782],[36.9167,35.383],[36.9298,35.3836],[36.9482,35.3804],[36.9538,35.3833],[36.957,35.3953],[36.9675,35.404],[36.9888,35.4131],[36.9967,35.4314],[37.005,35.4316],[37.0097,35.4272],[37.0158,35.4128],[37.0243,35.4108],[37.0347,35.4118],[37.0386,35.4085],[37.0798,35.4109],[37.089,35.4196],[37.1045,35.4289],[37.1067,35.4419],[37.1027,35.447],[37.1015,35.4585],[37.1043,35.4686],[37.117,35.4719],[37.122,35.4666],[37.143,35.4588],[37.1493,35.4707],[37.1561,35.4777],[37.1615,35.4893],[37.1612,35.5045],[37.1655,35.5129],[37.1815,35.5173],[37.1953,35.5326],[37.1958,35.5423],[37.1991,35.5462]]]},"properties":{"code":"SY07","nameAr":"إدلب","nameEn":"Idleb","centerLat":35.85769678,"centerLng":36.5708795}},
{"type":"Feature","geometry":{"type":"Polygon","coordinates":[[[36.1548,35.8202],[36.1417,35.8465],[36.134,35.8552],[36.1164,35.8655],[36.0963,35.8687],[36.0499,35.8791],[36.0226,35.8798],[36.0162,35.8837],[36.0148,35.8899],[36.0217,35.9086],[36.0227,35.9245],[36.0161,35.934],[36.0086,35.9402],[35.9937,35.9393],[35.9509,35.9218],[35.9358,35.9187],[35.9217,35.9305],[35.9104,35.9251],[35.9052,35.9194],[35.8867,35.8735],[35.8721,35.8654],[35.8623,35.8568],[35.844,35.8511],[35.8332,35.8529],[35.8245,35.8589],[35.8183,35.853],[35.8172,35.8369],[35.8259,35.8302],[35.8283,35.8188],[35.8384,35.8055],[35.8409,35.7936],[35.8474,35.7844],[35.8473,35.7713],[35.8541,35.7559],[35.853,35.748],[35.8432,35.7397],[35.8397,35.722],[35.8195,35.7068],[35.8068,35.6862],[35.7904,35.6819],[35.7782,35.6729],[35.7743,35.6629],[35.7842,35.6556],[35.7898,35.6422],[35.7879,35.6256],[35.7709,35.6091],[35.7699,35.5992],[35.7587,35.5913],[35.7496,35.5932],[35.7392,35.5881],[35.7282,35.5875],[35.7293,35.5821],[35.7499,35.5858],[35.7544,35.5795],[35.7434,35.565],[35.7619,35.5531],[35.7641,35.5478],[35.7788,35.5436],[35.7833,35.5302],[35.7795,35.5202],[35.7703,35.5117],[35.7881,35.5],[35.7976,35.5074],[35.8156,35.5044],[35.8267,35.4955],[35.8662,35.4733],[35.8826,35.4625],[35.9242,35.4236],[35.9201,35.4134],[35.9262,35.3839],[35.9279,35.3704],[35.9271,35.3537],[35.9323,35.3122],[35.9277,35.2848],[35.9322,35.2698],[35.9446,35.274],[35.9466,35.2711],[35.9527,35.2676],[35.9568,35.259],[35.967,35.2585],[35.9722,35.255],[35.9753,35.2442],[35.984,35.2504],[35.991,35.2521],[36.0123,35.2325],[36.0386,35.2312],[36.0458,35.2255],[36.0552,35.2262],[36.076,35.2242],[36.0964,35.2244],[36.1184,35.2217],[36.1216,35.2241],[36.145,35.2263],[36.1651,35.221],[36.1799,35.2262],[36.1829,35.2335],[36.1909,35.2363],[36.2003,35.2472],[36.2081,35.2512],[36.2264,35.254],[36.2353,35.2887],[36.2343,35.2983],[36.2376,35.3077],[36.2303,35.3254],[36.2307,35.3344],[36.2374,35.3399],[36.2296,35.3504],[36.2269,35.3613],[36.2342,35.3752],[36.2151,35.3973],[36.2081,35.4101],[36.2055,35.419],[36.2099,35.4379],[36.2092,35.4478],[36.2194,35.4543],[36.2153,35.4595],[36.2221,35.4671],[36.2227,35.4801],[36.221,35.5073],[36.2223,35.5102],[36.221,35.5676],[36.2283,35.5735],[36.2287,35.5793],[36.2246,35.6014],[36.216,35.6092],[36.2159,35.6264],[36.2189,35.6265],[36.2239,35.6415],[36.2226,35.6487],[36.2135,35.6528],[36.2168,35.6581],[36.2052,35.6653],[36.2105,35.6815],[36.2191,35.6711],[36.2333,35.669],[36.2397,35.6759],[36.2494,35.6761],[36.2508,35.6878],[36.2456,35.6928],[36.2474,35.701],[36.2528,35.7054],[36.2496,35.7154],[36.2587,35.7201],[36.2435,35.7343],[36.2346,35.7386],[36.2294,35.7518],[36.2075,35.7526],[36.1998,35.7608],[36.1979,35.767],[36.1887,35.7749],[36.169,35.785],[36.1609,35.7839],[36.1506,35.7886],[36.1476,35.7947],[36.1514,35.812],[36.1548,35.8202]]]},"properties":{"code":"SY06","nameAr":"اللاذقية","nameEn":"Lattakia","centerLat":35.58078003,"centerLng":35.99093035}},
{"type":"Feature","geometry":{"type":"Polygon","coordinates":[[[35.9895,33.1588],[35.9929,33.1806],[35.99,33.1846],[35.9945,33.1991],[35.9736,33.2018],[35.9628,33.2007],[35.9593,33.2076],[35.961,33.2188],[35.966,33.2316],[35.9663,33.2494],[35.9639,33.2592],[35.9575,33.2645],[35.9505,33.2657],[35.9409,33.2632],[35.9201,33.2666],[35.9099,33.2606],[35.9031,33.2611],[35.8954,33.2546],[35.8855,33.2542],[35.8746,33.2716],[35.8652,33.281],[35.8717,33.2854],[35.8719,33.2922],[35.883,33.2968],[35.8761,33.3081],[35.8463,33.3366],[35.8155,33.358],[35.8031,33.3516],[35.7885,33.3411],[35.7637,33.331],[35.7448,33.3248],[35.7242,33.3288],[35.7136,33.3219],[35.7102,33.3066],[35.7026,33.3007],[35.6877,33.2952],[35.6693,33.2827],[35.659,33.2743],[35.643,33.2799],[35.6214,33.2718],[35.6215,33.2591],[35.6244,33.2423],[35.6427,33.2456],[35.6513,33.2499],[35.6702,33.2469],[35.6803,33.2475],[35.6846,33.2429],[35.6828,33.2367],[35.6712,33.2307],[35.6671,33.2253],[35.6663,33.2112],[35.663,33.1891],[35.6706,33.1532],[35.6535,33.124],[35.6491,33.0846],[35.6457,33.0779],[35.6468,33.0627],[35.6408,33.0414],[35.632,33.0249],[35.6299,33.0135],[35.633,33.0086],[35.6306,32.9949],[35.6332,32.9902],[35.6312,32.9599],[35.629,32.9559],[35.6284,32.9384],[35.6243,32.9169],[35.627,32.9115],[35.6232,32.9056],[35.6168,32.905],[35.6139,32.8952],[35.6231,32.8903],[35.6429,32.8672],[35.6431,32.8618],[35.6496,32.8486],[35.6496,32.8407],[35.6416,32.8343],[35.6457,32.8207],[35.6445,32.8107],[35.6557,32.8085],[35.655,32.7927],[35.6627,32.7771],[35.6556,32.7545],[35.6571,32.7482],[35.6516,32.7341],[35.6492,32.714],[35.6452,32.7084],[35.6377,32.7049],[35.6346,32.6864],[35.6447,32.6778],[35.6576,32.6854],[35.6639,32.6803],[35.6743,32.6851],[35.6716,32.6911],[35.6883,32.7076],[35.6987,32.712],[35.7083,32.7222],[35.7396,32.7324],[35.7469,32.7321],[35.7606,32.7519],[35.7735,32.7623],[35.7774,32.7695],[35.7858,32.7771],[35.7988,32.7798],[35.8078,32.7841],[35.8096,32.7889],[35.8207,32.7936],[35.8305,32.8056],[35.8434,32.8152],[35.8482,32.825],[35.8463,32.835],[35.8525,32.8449],[35.8656,32.8499],[35.8731,32.8551],[35.8836,32.8684],[35.8968,32.8821],[35.9123,32.8829],[35.9259,32.8961],[35.9387,32.8975],[35.9444,32.9039],[35.9448,32.917],[35.938,32.925],[35.9395,32.9311],[35.9496,32.9292],[35.9597,32.9419],[35.9699,32.9389],[35.9756,32.9283],[35.9878,32.9295],[35.9973,32.9376],[35.9935,32.9608],[35.9822,32.9694],[35.9835,32.9865],[35.9781,32.9941],[35.9675,33.0034],[35.9634,33.0192],[35.9463,33.0364],[35.9463,33.0443],[35.9654,33.0662],[35.9685,33.0919],[35.9775,33.1012],[35.9857,33.1151],[35.9889,33.1257],[35.9848,33.1387],[35.9847,33.149],[35.9895,33.1588]]]},"properties":{"code":"SY14","nameAr":"القنيطرة","nameEn":"Quneitra","centerLat":33.0170919,"centerLng":35.79703278}},
{"type":"Feature","geometry":{"type":"Polygon","coordinates":[[[39.1253,33.5315],[39.1139,33.5455],[38.9334,33.7597],[38.7987,33.7752],[38.5827,33.8001],[38.463,33.8138],[38.2694,33.8361],[38.0645,33.8608],[37.8558,33.8849],[37.7693,33.895],[37.7042,33.9019],[37.6557,33.9095],[37.6207,33.9179],[37.611,33.9235],[37.6057,33.9318],[37.604,33.9418],[37.6094,33.9465],[37.6137,33.9585],[37.6097,33.9731],[37.6017,33.9808],[37.5921,33.9845],[37.5797,33.9861],[37.5518,33.9875],[37.5294,33.9846],[37.4838,33.9811],[37.4528,33.9692],[37.4227,33.9522],[37.3962,33.9568],[37.3364,33.9426],[37.2957,33.9316],[37.191,33.9387],[37.1386,33.9382],[37.0092,33.94],[37.0085,33.9596],[37.0187,34.0209],[36.9968,34.0209],[36.9838,34.0333],[36.9708,34.0381],[36.9513,34.0497],[36.9848,34.0705],[37.0058,34.0896],[36.9832,34.1022],[36.9658,34.1135],[36.9433,34.1323],[36.9231,34.1649],[36.9007,34.1857],[36.8806,34.185],[36.872,34.1877],[36.8633,34.1854],[36.8481,34.1944],[36.8254,34.2058],[36.8235,34.219],[36.8198,34.2218],[36.7933,34.2262],[36.7943,34.2415],[36.7833,34.2408],[36.7597,34.2356],[36.7507,34.2301],[36.7264,34.229],[36.6947,34.2245],[36.6629,34.2338],[36.6005,34.2226],[36.6082,34.2186],[36.6254,34.2024],[36.6171,34.1968],[36.6064,34.1935],[36.5941,34.1837],[36.5824,34.1619],[36.5688,34.1541],[36.5722,34.1433],[36.5636,34.1329],[36.5492,34.1299],[36.5359,34.1168],[36.532,34.1085],[36.5182,34.101],[36.5129,34.0946],[36.5154,34.0748],[36.505,34.0557],[36.5184,34.0453],[36.5012,34.0489],[36.496,34.027],[36.4889,34.0488],[36.4809,34.0387],[36.4626,34.0438],[36.455,34.0435],[36.4429,34.0497],[36.4259,34.0547],[36.4165,34.0414],[36.4106,34.045],[36.4019,34.041],[36.4062,34.0275],[36.3913,34.0289],[36.3862,34.0193],[36.3848,34.0097],[36.3708,34.0044],[36.3674,33.9961],[36.3526,33.9935],[36.3475,33.9846],[36.3265,33.9673],[36.3187,33.9522],[36.3084,33.9478],[36.2921,33.922],[36.288,33.9173],[36.2842,33.9025],[36.2966,33.9001],[36.3109,33.8939],[36.3166,33.8889],[36.3197,33.8785],[36.3376,33.8735],[36.3612,33.8739],[36.3663,33.8721],[36.3709,33.8611],[36.385,33.8546],[36.3908,33.8442],[36.3899,33.8321],[36.3839,33.8298],[36.3749,33.8202],[36.3673,33.8183],[36.337,33.8253],[36.3246,33.8256],[36.3076,33.8353],[36.2954,33.8342],[36.2877,33.8373],[36.2749,33.8469],[36.2574,33.8486],[36.2445,33.853],[36.2363,33.8354],[36.2203,33.8355],[36.2148,33.8272],[36.2092,33.8304],[36.2024,33.8281],[36.1773,33.8321],[36.1666,33.8409],[36.1626,33.8523],[36.1523,33.8519],[36.1413,33.8373],[36.113,33.8328],[36.107,33.8215],[36.0876,33.8153],[36.0789,33.8225],[36.0692,33.8203],[36.0567,33.8034],[36.0472,33.7828],[36.0362,33.7731],[36.0308,33.7653],[36.0148,33.7688],[36.0095,33.758],[36.0006,33.7494],[35.9926,33.723],[35.9783,33.7153],[35.9715,33.7083],[35.9767,33.6982],[35.9684,33.6784],[35.964,33.6742],[35.9501,33.6687],[35.9398,33.6545],[35.9325,33.6498],[35.9349,33.6409],[35.944,33.6352],[35.9648,33.6325],[35.9748,33.6378],[35.9879,33.6285],[35.9955,33.6191],[36.0037,33.6143],[36.0167,33.6157],[36.044,33.5994],[36.0596,33.5855],[36.0631,33.5781],[36.0602,33.5711],[36.0397,33.5544],[36.0312,33.5425],[36.0112,33.5405],[35.9914,33.5324],[35.9798,33.5366],[35.9688,33.5297],[35.9515,33.5259],[35.9382,33.5152],[35.9385,33.5103],[35.95,33.504],[35.9492,33.4727],[35.9348,33.4599],[35.9133,33.4463],[35.9026,33.4364],[35.875,33.4218],[35.8418,33.407],[35.8255,33.3964],[35.8187,33.3843],[35.8155,33.358],[35.8463,33.3366],[35.8761,33.3081],[35.883,33.2968],[35.8719,33.2922],[35.8717,33.2854],[35.8652,33.281],[35.8746,33.2716],[35.8855,33.2542],[35.8954,33.2546],[35.9031,33.2611],[35.9099,33.2606],[35.9201,33.2666],[35.9409,33.2632],[35.9505,33.2657],[35.9575,33.2645],[35.9639,33.2592],[35.9663,33.2494],[35.966,33.2316],[35.961,33.2188],[35.9593,33.2076],[35.9628,33.2007],[35.9736,33.2018],[35.9945,33.1991],[35.99,33.1846],[35.9929,33.1806],[35.9895,33.1588],[35.9988,33.1637],[36.0092,33.1642],[36.0252,33.1537],[36.0356,33.1539],[36.0507,33.1573],[36.0573,33.1617],[36.0701,33.1613],[36.0795,33.1675],[36.0761,33.1766],[36.0802,33.1929],[36.0911,33.1969],[36.1095,33.195],[36.1208,33.1984],[36.1447,33.1917],[36.157,33.1973],[36.1637,33.2125],[36.1828,33.2182],[36.1937,33.2114],[36.2087,33.2099],[36.2165,33.2173],[36.2265,33.2695],[36.236,33.2735],[36.2445,33.2669],[36.2614,33.2602],[36.2682,33.255],[36.2782,33.2433],[36.2825,33.2344],[36.2978,33.2272],[36.316,33.2252],[36.3224,33.2097],[36.3318,33.2048],[36.3386,33.1984],[36.3464,33.1989],[36.3683,33.1839],[36.3958,33.1916],[36.3981,33.1949],[36.3933,33.2173],[36.4259,33.2487],[36.4396,33.2554],[36.4496,33.268],[36.466,33.2696],[36.4713,33.2732],[36.4909,33.2795],[36.5056,33.2962],[36.5147,33.2967],[36.5281,33.2836],[36.5358,33.2805],[36.5505,33.2599],[36.5486,33.2522],[36.5561,33.2463],[36.5647,33.2174],[36.5723,33.1827],[36.6661,33.1903],[36.7079,33.1941],[36.7123,33.1929],[36.7597,33.1531],[36.8402,33.0869],[36.8571,33.0724],[36.8709,33.0622],[36.8849,33.0565],[36.9135,33.0518],[36.9781,33.0501],[37.0368,33.0489],[37.0495,33.0467],[37.0949,33.033],[37.1164,33.0226],[37.1284,33.0185],[37.1476,33.0147],[37.1942,33.0082],[37.2016,33.006],[37.2433,33.0043],[37.2568,33.003],[37.2767,32.9953],[37.2753,32.9646],[37.279,32.9268],[37.2872,32.9066],[37.3511,32.8184],[37.3595,32.8079],[37.3905,32.7657],[37.4204,32.726],[37.4565,32.6761],[37.4643,32.664],[37.8059,32.8459],[38.7925,33.3747],[39.1253,33.5315]],[[36.3252,33.5641],[36.3343,33.565],[36.3362,33.5589],[36.3559,33.5567],[36.3531,33.5456],[36.344,33.5266],[36.3505,33.5209],[36.3402,33.5185],[36.3251,33.4858],[36.3175,33.4845],[36.3137,33.4619],[36.3032,33.4674],[36.2986,33.4627],[36.2828,33.4586],[36.2715,33.4698],[36.2653,33.4698],[36.238,33.4783],[36.2223,33.4683],[36.2188,33.4724],[36.207,33.4693],[36.2102,33.4859],[36.2087,33.516],[36.1992,33.5146],[36.1971,33.5251],[36.204,33.5339],[36.2316,33.5419],[36.2389,33.546],[36.2699,33.5579],[36.2804,33.5636],[36.3152,33.5651],[36.3252,33.5641]]]},"properties":{"code":"SY03","nameAr":"ريف دمشق","nameEn":"Rural Damascus","centerLat":33.45248222,"centerLng":37.44002321}},
{"type":"Feature","geometry":{"type":"Polygon","coordinates":[[[36.2264,35.254],[36.2081,35.2512],[36.2003,35.2472],[36.1909,35.2363],[36.1829,35.2335],[36.1799,35.2262],[36.1651,35.221],[36.145,35.2263],[36.1216,35.2241],[36.1184,35.2217],[36.0964,35.2244],[36.076,35.2242],[36.0552,35.2262],[36.0458,35.2255],[36.0386,35.2312],[36.0123,35.2325],[35.991,35.2521],[35.984,35.2504],[35.9753,35.2442],[35.9722,35.255],[35.967,35.2585],[35.9568,35.259],[35.9527,35.2676],[35.9466,35.2711],[35.9376,35.2676],[35.9358,35.2627],[35.9491,35.2452],[35.9549,35.2327],[35.9602,35.2163],[35.963,35.2007],[35.9571,35.188],[35.9327,35.1747],[35.9307,35.1689],[35.933,35.1601],[35.9307,35.154],[35.9197,35.1432],[35.9174,35.1312],[35.9102,35.1202],[35.9053,35.1192],[35.8973,35.1077],[35.8963,35.0985],[35.9004,35.086],[35.8983,35.0738],[35.8917,35.0589],[35.8981,35.0499],[35.9043,35.0113],[35.9029,35.0043],[35.8878,34.992],[35.8829,34.9678],[35.8862,34.9458],[35.8846,34.9378],[35.8881,34.9264],[35.8804,34.9097],[35.9047,34.8416],[35.9345,34.7871],[35.9391,34.7752],[35.9389,34.7576],[35.941,34.7408],[35.9472,34.7226],[35.9606,34.6966],[35.9808,34.6436],[35.9838,34.6522],[35.9922,34.6499],[35.9921,34.6433],[36.0078,34.6453],[36.0136,34.6385],[36.0235,34.6354],[36.0348,34.6277],[36.0427,34.63],[36.0513,34.6282],[36.0611,34.6355],[36.0712,34.6333],[36.0759,34.6294],[36.0852,34.6322],[36.0929,34.6293],[36.0989,34.6365],[36.1098,34.6335],[36.1173,34.638],[36.1168,34.6491],[36.129,34.6646],[36.1256,34.6749],[36.1256,34.6856],[36.1284,34.6916],[36.1477,34.7],[36.1513,34.7239],[36.145,34.7346],[36.1604,34.7444],[36.1702,34.7591],[36.1884,34.7669],[36.1994,34.774],[36.2039,34.7798],[36.22,34.7891],[36.2442,34.7943],[36.2595,34.8039],[36.2693,34.8073],[36.2849,34.8376],[36.3095,34.8565],[36.3151,34.8642],[36.3281,34.874],[36.3259,34.8808],[36.3108,34.8782],[36.3035,34.8683],[36.2888,34.8634],[36.2715,34.8689],[36.2671,34.8735],[36.2665,34.8858],[36.2827,34.8976],[36.2853,34.9103],[36.2837,34.9145],[36.2748,34.919],[36.266,34.9192],[36.2691,34.9277],[36.269,34.9485],[36.2614,34.9587],[36.2381,34.9775],[36.2109,34.9797],[36.1873,34.9866],[36.1731,34.9845],[36.154,34.9754],[36.1377,34.9722],[36.137,34.9787],[36.15,34.9828],[36.1544,34.9974],[36.1593,35.0052],[36.183,35.012],[36.1999,35.0239],[36.2376,35.0265],[36.2428,35.0353],[36.2541,35.0666],[36.2486,35.07],[36.249,35.0785],[36.2653,35.0853],[36.2644,35.1008],[36.2723,35.1107],[36.2689,35.1163],[36.2729,35.1273],[36.2663,35.1395],[36.2662,35.1525],[36.2633,35.1567],[36.2554,35.1828],[36.2537,35.1967],[36.255,35.2119],[36.2482,35.2202],[36.244,35.2305],[36.2441,35.2438],[36.2365,35.2509],[36.2264,35.254]]]},"properties":{"code":"SY10","nameAr":"طرطوس","nameEn":"Tartous","centerLat":34.95118406,"centerLng":36.0763833}}
]}